{
    "links": {
        "self": "http://www.neowsapp.com/rest/v1/neo/54055103?api_key=iIulBulltgU6a56xZRHN4H3l9WmuAYTsLGpBGhQ2"
    },
    "id": "54055103",
    "neo_reference_id": "54055103",
    "name": "(2020 TW2)",
    "designation": "2020 TW2",
    "nasa_jpl_url": "http://ssd.jpl.nasa.gov/sbdb.cgi?sstr=54055103",
    "absolute_magnitude_h": 26.799,
    "estimated_diameter": {
        "kilometers": {
            "estimated_diameter_min": 0.0116079352,
            "estimated_diameter_max": 0.0259561323
        },
        "meters": {
            "estimated_diameter_min": 11.607935242,
            "estimated_diameter_max": 25.9561322795
        },
        "miles": {
            "estimated_diameter_min": 0.0072128343,
            "estimated_diameter_max": 0.0161283879
        },
        "feet": {
            "estimated_diameter_min": 38.0837782593,
            "estimated_diameter_max": 85.1579170278
        }
    },
    "is_potentially_hazardous_asteroid": false,
    "close_approach_data": [
        {
            "close_approach_date": "2013-06-04",
            "close_approach_date_full": "2013-Jun-04 09:52",
            "epoch_date_close_approach": 1370339520000,
            "relative_velocity": {
                "kilometers_per_second": "17.6404743603",
                "kilometers_per_hour": "63505.7076969659",
                "miles_per_hour": "39459.9770964842"
            },
            "miss_distance": {
                "astronomical": "0.3041613444",
                "lunar": "118.3187629716",
                "kilometers": "45501889.258576428",
                "miles": "28273562.9227455864"
            },
            "orbiting_body": "Earth"
        },
        {
            "close_approach_date": "2020-05-27",
            "close_approach_date_full": "2020-May-27 02:53",
            "epoch_date_close_approach": 1590547980000,
            "relative_velocity": {
                "kilometers_per_second": "3.9557886871",
                "kilometers_per_hour": "14240.8392734411",
                "miles_per_hour": "8848.7037141001"
            },
            "miss_distance": {
                "astronomical": "0.4333503322",
                "lunar": "168.5732792258",
                "kilometers": "64828286.660912414",
                "miles": "40282429.4100187532"
            },
            "orbiting_body": "Earth"
        },
        {
            "close_approach_date": "2020-10-08",
            "close_approach_date_full": "2020-Oct-08 17:11",
            "epoch_date_close_approach": 1602177060000,
            "relative_velocity": {
                "kilometers_per_second": "8.9496284717",
                "kilometers_per_hour": "32218.6624980699",
                "miles_per_hour": "20019.4239283146"
            },
            "miss_distance": {
                "astronomical": "0.0127688298",
                "lunar": "4.9670747922",
                "kilometers": "1910189.740472526",
                "miles": "1186936.8657358188"
            },
            "orbiting_body": "Earth"
        }
    ],
    "orbital_data": {
        "orbit_id": "6",
        "orbit_determination_date": "2020-11-07 06:22:07",
        "first_observation_date": "2020-10-11",
        "last_observation_date": "2020-10-20",
        "data_arc_in_days": 9,
        "observations_used": 45,
        "orbit_uncertainty": "7",
        "minimum_orbit_intersection": ".00990525",
        "jupiter_tisserand_invariant": "4.528",
        "epoch_osculation": "2459000.5",
        "eccentricity": ".3782739229718475",
        "semi_major_axis": "1.467765390619666",
        "inclination": "1.770038618402422",
        "ascending_node_longitude": "212.8670106452869",
        "orbital_period": "649.5063349806932",
        "perihelion_distance": ".9125480183076586",
        "perihelion_argument": "114.4376821709392",
        "aphelion_distance": "2.022982762931673",
        "perihelion_time": "2459092.744921625117",
        "mean_anomaly": "308.8716737673863",
        "mean_motion": ".5542671112063922",
        "equinox": "J2000",
        "orbit_class": {
            "orbit_class_type": "APO",
            "orbit_class_description": "Near-Earth asteroid orbits which cross the Earth’s orbit similar to that of 1862 Apollo",
            "orbit_class_range": "a (semi-major axis) > 1.0 AU; q (perihelion) < 1.017 AU"
        }
    },
    "is_sentry_object": false
}